[
    {
        "Altitude(m)": 607895.8383261815,
        "Argument of Periapsis(deg)": 0.0,
        "Eccentricity": 0.0,
        "Inclination(deg)": 60.0,
        "Latitude(deg)": 40.99839631484743,
        "Longitude(deg)": 35.08856925382619,
        "Mean Anomaly(deg)": -229.09089999999995,
        "RAAN(deg)": 345.0,
        "Satellite Name": "Test1 1526",
        "Satellite Number": 1526,
        "Semi-Major Axis(m)": 6980739.136638005,
        "Time(s)": 0
    },
    {
        "Altitude(m)": 607795.1513996659,
        "Argument of Periapsis(deg)": 0.00010418945913296404,
        "Eccentricity": 0.0,
        "Inclination(deg)": 60.0,
        "Latitude(deg)": 40.53072134368828,
        "Longitude(deg)": 35.585164758582856,
        "Mean Anomaly(deg)": -228.4707938545382,
        "RAAN(deg)": 344.99957995086027,
        "Satellite Name": "Test1 1526",
        "Satellite Number": 1526,
        "Semi-Major Axis(m)": 6980739.136638005,
        "Time(s)": 10
    }
]